{
  "type": "Feature",
  "properties": {
    "name": "HIGHLINE",
    "sector": "Romsås",
    "difficulty": "RED",
    "routeType": "LOOP",
    "mergeSegmentIndex": 12,
    "mergeT": 0.9989247365503394,
    "mergeLat": 59.97350239566069,
    "mergeLng": 10.90637821110474,
    "minElevation": 288,
    "maxElevation": 338
  },
  "geometry": {
    "type": "LineString",
    "coordinates": [
      [
        10.906579026814759,
        59.971735484384894
      ],
      [
        10.906640047069848,
        59.97187266626904
      ],
      [
        10.906853617962659,
        59.971967336328234
      ],
      [
        10.9070733495543,
        59.97201240622813
      ],
      [
        10.907212824423075,
        59.97208283175622
      ],
      [
        10.907221499692858,
        59.972188385878084
      ],
      [
        10.907232270438433,
        59.97230442581493
      ],
      [
        10.907122551325918,
        59.97243665589979
      ],
      [
        10.90698927906549,
        59.972645119069085
      ],
      [
        10.90689741340673,
        59.972832839659304
      ],
      [
        10.90682335929221,
        59.972984361759345
      ],
      [
        10.906635604661167,
        59.97319049361802
      ],
      [
        10.906547594677866,
        59.97329906412996
      ],
      [
        10.906378028776706,
        59.973502614530325
      ],
      [
        10.90664134626484,
        59.97359931416366
      ],
      [
        10.907143715631426,
        59.973680788261426
      ],
      [
        10.907435033820079,
        59.97370644488437
      ],
      [
        10.907801155350612,
        59.97382535257519
      ],
      [
        10.908088822267459,
        59.97393104794191
      ],
      [
        10.908280600212024,
        59.974005915289226
      ],
      [
        10.908210192225383,
        59.974146799659195
      ],
      [
        10.908130983240412,
        59.97422166651872
      ],
      [
        10.907815770179358,
        59.9743831478872
      ],
      [
        10.90769930363479,
        59.974554060958724
      ],
      [
        10.907613640584376,
        59.974666863102655
      ],
      [
        10.907522194020775,
        59.97481774768981
      ],
      [
        10.907440449510094,
        59.97496195244874
      ],
      [
        10.907385443270531,
        59.97500818214071
      ],
      [
        10.907209549032476,
        59.97513646946006
      ],
      [
        10.907171013232645,
        59.97518831375306
      ],
      [
        10.907214714380306,
        59.97523116164477
      ],
      [
        10.907180715285566,
        59.975303562030746
      ],
      [
        10.907149534605768,
        59.97544288907682
      ],
      [
        10.907142588103515,
        59.975482685462524
      ],
      [
        10.907142577626136,
        59.97552994721266
      ],
      [
        10.907204876121458,
        59.975585539316945
      ],
      [
        10.907318702366528,
        59.97565838454432
      ],
      [
        10.907401012655672,
        59.9757212111306
      ],
      [
        10.907471462551829,
        59.975749630894846
      ],
      [
        10.907556077864346,
        59.975787885610046
      ],
      [
        10.90758658799189,
        59.975810989402525
      ],
      [
        10.907594959417683,
        59.97584287963462
      ],
      [
        10.907640357900735,
        59.975894214298506
      ],
      [
        10.907668196296644,
        59.97594032211145
      ],
      [
        10.907694222105992,
        59.97598398685885
      ],
      [
        10.907749333119344,
        59.976026990995514
      ],
      [
        10.907807304457155,
        59.97604260311373
      ],
      [
        10.90782364916834,
        59.97606128731803
      ],
      [
        10.907843807645467,
        59.97609912227523
      ],
      [
        10.907852514347386,
        59.97612345783107
      ],
      [
        10.9079190509425,
        59.976167617749766
      ],
      [
        10.90799986748408,
        59.97623341995392
      ],
      [
        10.908034736201273,
        59.97628222715388
      ],
      [
        10.908113190814959,
        59.97632399893019
      ],
      [
        10.908117549404608,
        59.97637671684976
      ],
      [
        10.908099947407948,
        59.976451694000865
      ],
      [
        10.9080933466592,
        59.97648576970215
      ],
      [
        10.90802201666321,
        59.97654223044078
      ],
      [
        10.907993413418637,
        59.97659215905831
      ],
      [
        10.907967827659206,
        59.97669406059572
      ],
      [
        10.907877548615005,
        59.97677673422052
      ],
      [
        10.90780156213242,
        59.976788800749866
      ],
      [
        10.90771860224578,
        59.97680672963298
      ],
      [
        10.907573287761494,
        59.97684269711689
      ],
      [
        10.907543091955318,
        59.97686543845102
      ],
      [
        10.907469404549062,
        59.9769105016848
      ],
      [
        10.907423356468513,
        59.97693708560884
      ],
      [
        10.907355463052824,
        59.976966500373535
      ],
      [
        10.907314381249904,
        59.97697995220695
      ],
      [
        10.907283651097401,
        59.97698600710292
      ],
      [
        10.907160473791606,
        59.97700475892517
      ],
      [
        10.907110239998161,
        59.97702676360104
      ],
      [
        10.907066255961269,
        59.97704657959203
      ],
      [
        10.907064055711686,
        59.97706638508654
      ],
      [
        10.907090207249581,
        59.97709389677547
      ],
      [
        10.90712289667195,
        59.97712356827414
      ],
      [
        10.907142510325372,
        59.97715546248441
      ],
      [
        10.90715558609432,
        59.977188447062694
      ],
      [
        10.907162123978793,
        59.977215906227244
      ],
      [
        10.907120319236725,
        59.977241216028865
      ],
      [
        10.907056574863105,
        59.97725772924855
      ],
      [
        10.906977554470956,
        59.97728059611253
      ],
      [
        10.906915947482645,
        59.97730151283121
      ],
      [
        10.90686096219784,
        59.977318026020846
      ],
      [
        10.906755580720215,
        59.97736302573134
      ],
      [
        10.906716913953147,
        59.97738775090739
      ],
      [
        10.906710643241837,
        59.97740706342472
      ],
      [
        10.906709642652146,
        59.97743322494792
      ],
      [
        10.906716562960952,
        59.97747007803543
      ],
      [
        10.906725332527145,
        59.97750710145506
      ],
      [
        10.906747125475391,
        59.97752027785079
      ],
      [
        10.906820110897257,
        59.97754584691084
      ],
      [
        10.906867358637697,
        59.97755169987693
      ],
      [
        10.906924570365533,
        59.97756393527246
      ],
      [
        10.906965830283895,
        59.97758833003745
      ],
      [
        10.906981116779804,
        59.97760143563064
      ],
      [
        10.906995334583058,
        59.977620734917735
      ],
      [
        10.90699773914153,
        59.97764649786272
      ],
      [
        10.906972231962442,
        59.97766568441568
      ],
      [
        10.90695818703594,
        59.97768374125845
      ],
      [
        10.906953477454095,
        59.97770272072215
      ],
      [
        10.906961104985982,
        59.977716455336235
      ],
      [
        10.906975815226048,
        59.97773266427043
      ],
      [
        10.906996466139987,
        59.977751677780454
      ],
      [
        10.907014026227131,
        59.97779353944155
      ],
      [
        10.907012905147582,
        59.97782322603984
      ],
      [
        10.907010516305178,
        59.97787781827736
      ],
      [
        10.907001531952716,
        59.97790146055702
      ],
      [
        10.906998231578342,
        59.97791748592412
      ],
      [
        10.906998514467574,
        59.97794179131151
      ],
      [
        10.907007414149206,
        59.97797097349105
      ],
      [
        10.907016131328504,
        59.97801055190929
      ],
      [
        10.907021516701292,
        59.9780516609924
      ],
      [
        10.907017116202127,
        59.978083533340005
      ],
      [
        10.906999514205467,
        59.97813750657447
      ],
      [
        10.906966510461729,
        59.97818517866467
      ],
      [
        10.906925879186105,
        59.978228468260006
      ],
      [
        10.906914807562845,
        59.978241908179626
      ],
      [
        10.906891233460176,
        59.97830658557604
      ],
      [
        10.90686761744799,
        59.978339175848625
      ],
      [
        10.906834110790061,
        59.97837067048721
      ],
      [
        10.906783989739033,
        59.978439989361654
      ],
      [
        10.906760534821224,
        59.978481681404965
      ],
      [
        10.906724618366134,
        59.97856506995595
      ],
      [
        10.906661480520222,
        59.978722067950436
      ],
      [
        10.90647240573943,
        59.97900637503144
      ],
      [
        10.906342423375998,
        59.97900587179813
      ],
      [
        10.906210638903383,
        59.97896880025521
      ],
      [
        10.906115745282102,
        59.97894064011316
      ],
      [
        10.906056571244992,
        59.97890926579208
      ],
      [
        10.906038086949218,
        59.97888219411271
      ],
      [
        10.906026682322215,
        59.978854400839644
      ],
      [
        10.906005470868502,
        59.97879713938957
      ],
      [
        10.906027232384611,
        59.97878230701447
      ],
      [
        10.906038898946088,
        59.9787459822141
      ],
      [
        10.906042346003767,
        59.97871038864134
      ],
      [
        10.90604979850946,
        59.97864373590381
      ],
      [
        10.906032175558042,
        59.978573051740085
      ],
      [
        10.906025574809295,
        59.978519624393094
      ],
      [
        10.906005919246358,
        59.97845112067881
      ],
      [
        10.906034250079077,
        59.97839660277613
      ],
      [
        10.906054890515637,
        59.9783291891685
      ],
      [
        10.90611486303283,
        59.9782113460783
      ],
      [
        10.906118991120142,
        59.97814893310451
      ],
      [
        10.906125508049858,
        59.97809441470424
      ],
      [
        10.9061647353567,
        59.978056251770624
      ],
      [
        10.906186507350188,
        59.97800609470526
      ],
      [
        10.90619294176439,
        59.97789100768894
      ],
      [
        10.90614893677274,
        59.977797235254386
      ],
      [
        10.906107278713977,
        59.97771564547146
      ],
      [
        10.906094077216482,
        59.97763713791924
      ],
      [
        10.906151325615143,
        59.977580432662386
      ],
      [
        10.906151325615143,
        59.9775505413989
      ],
      [
        10.906177990544608,
        59.97750188809379
      ],
      [
        10.906197027942186,
        59.97744960707329
      ],
      [
        10.906206258513054,
        59.97742734842866
      ],
      [
        10.906214505822728,
        59.97741228102473
      ],
      [
        10.906257499747309,
        59.97733872146384
      ],
      [
        10.90626982638366,
        59.977307902098076
      ],
      [
        10.906273744923393,
        59.977278002725086
      ],
      [
        10.906327042129922,
        59.977206325331444
      ],
      [
        10.906367652450788,
        59.97717181001816
      ],
      [
        10.906393374416146,
        59.97713682810332
      ],
      [
        10.906337545702334,
        59.97704082030239
      ],
      [
        10.906310105446826,
        59.97702310123914
      ],
      [
        10.906332771642505,
        59.976964676619716
      ],
      [
        10.906213958165049,
        59.97689925218858
      ],
      [
        10.906130348680913,
        59.97681201941263
      ],
      [
        10.90610629261881,
        59.97669681308181
      ],
      [
        10.906197823001444,
        59.97658559057215
      ],
      [
        10.90627627761513,
        59.97643511246445
      ],
      [
        10.906372166587412,
        59.9763042613801
      ],
      [
        10.906454979790746,
        59.97621266531338
      ],
      [
        10.90654600725919,
        59.976020979592825
      ],
      [
        10.906703964224457,
        59.975854184223074
      ],
      [
        10.906620438559353,
        59.97572628763181
      ],
      [
        10.906665407469868,
        59.975519060133756
      ],
      [
        10.906717459088563,
        59.97529880872093
      ],
      [
        10.906726134358346,
        59.97508048513295
      ],
      [
        10.906766702769696,
        59.974898732950855
      ],
      [
        10.90689079684615,
        59.97476915501007
      ],
      [
        10.906978303915261,
        59.97461741039727
      ],
      [
        10.906812342232465,
        59.974410584893334
      ],
      [
        10.906713477684557,
        59.97432879802587
      ],
      [
        10.906437296964103,
        59.97419892508256
      ],
      [
        10.906380886755759,
        59.973906376948
      ],
      [
        10.906269742719704,
        59.97366499657703
      ],
      [
        10.906277408872697,
        59.97364970452059
      ],
      [
        10.906294843231294,
        59.97360138627002
      ],
      [
        10.906324347530457,
        59.97356716079985
      ],
      [
        10.90634105504483,
        59.97354783232227
      ],
      [
        10.90636251271695,
        59.9735230020426
      ],
      [
        10.90637821110474,
        59.97350239566069
      ]
    ]
  }
}